[{"OBJECT_NAME":"STARLINK-6148","OBJECT_ID":"2023-090S","EPOCH":"2026-03-08T22:49:13.267200","MEAN_MOTION":15.02536615,"ECCENTRICITY":0.00010219,"INCLINATION":43.0021,"RA_OF_ASC_NODE":278.5429,"ARG_OF_PERICENTER":267.2362,"MEAN_ANOMALY":92.8363,"EPHEMERIS_TYPE":0,"CLASSIFICATION_TYPE":"U","NORAD_CAT_ID":57117,"ELEMENT_SET_NO":999,"REV_AT_EPOCH":15029,"BSTAR":2.8571635e-5,"MEAN_MOTION_DOT":1.82e-6,"MEAN_MOTION_DDOT":0},{"OBJECT_NAME":"TITAN 4B DEB","OBJECT_ID":"2000-047D","EPOCH":"2026-03-09T07:18:39.687264","MEAN_MOTION":14.9350217,"ECCENTRICITY":0.00548001,"INCLINATION":67.9962,"RA_OF_ASC_NODE":173.9856,"ARG_OF_PERICENTER":92.7359,"MEAN_ANOMALY":268.0056,"EPHEMERIS_TYPE":0,"CLASSIFICATION_TYPE":"U","NORAD_CAT_ID":35415,"ELEMENT_SET_NO":999,"REV_AT_EPOCH":6621,"BSTAR":7.6847696e-5,"MEAN_MOTION_DOT":7.12e-6,"MEAN_MOTION_DDOT":0}]
